{
  "type": "FeatureCollection",
  "features": [
    {
      "type": "Feature",
      "properties": {
        "name": "USGS Gauge",
        "kind": "gauge",
        "desc": "Estacion de caudal observada (USGS/CAMELS)",
        "gauge_id": "02327100"
      },
      "geometry": {
        "type": "Point",
        "coordinates": [
          -84.49435,
          30.12937
        ]
      }
    },
    {
      "type": "Feature",
      "properties": {
        "name": "Basin centroid (geometry)",
        "kind": "basin_centroid",
        "desc": "Centroid computed from basin polygon",
        "gauge_id": "02327100"
      },
      "geometry": {
        "type": "Point",
        "coordinates": [
          -84.55809647628092,
          30.22818597361711
        ]
      }
    },
    {
      "type": "Feature",
      "properties": {
        "name": "CAMELS centroid (lon_cen/lat_cen)",
        "kind": "camels_centroid",
        "desc": "Centroid from CAMELS shapefile",
        "gauge_id": "02327100"
      },
      "geometry": {
        "type": "Point",
        "coordinates": [
          -84.5581,
          30.22819
        ]
      }
    },
    {
      "type": "Feature",
      "properties": {
        "name": "Daymet representative point",
        "kind": "daymet",
        "desc": "Representative point for basin-mean precipitation forcing",
        "gauge_id": "02327100"
      },
      "geometry": {
        "type": "Point",
        "coordinates": [
          -84.5641,
          30.23419
        ]
      }
    },
    {
      "type": "Feature",
      "properties": {
        "name": "Maurer representative point",
        "kind": "maurer",
        "desc": "Representative point for basin-mean precipitation forcing",
        "gauge_id": "02327100"
      },
      "geometry": {
        "type": "Point",
        "coordinates": [
          -84.5581,
          30.22819
        ]
      }
    },
    {
      "type": "Feature",
      "properties": {
        "name": "NLDAS representative point",
        "kind": "nldas",
        "desc": "Representative point for basin-mean precipitation forcing",
        "gauge_id": "02327100"
      },
      "geometry": {
        "type": "Point",
        "coordinates": [
          -84.5521,
          30.22219
        ]
      }
    }
  ]
}